NORAD_CAT_ID,OBJECT_NAME,OBJECT_TYPE,EPOCH,MEAN_MOTION,ECCENTRICITY,INCLINATION,RA_OF_ASC_NODE,ARG_OF_PERICENTER,MEAN_ANOMALY,BSTAR,MEAN_MOTION_DOT,MEAN_MOTION_DDOT,TLE_LINE0,TLE_LINE1,TLE_LINE2,SEMIMAJOR_AXIS,PERIOD,APOGEE,PERIGEE,DECAYED
51718.0,STARLINK-3546,PAYLOAD,2022-04-09 22:00:00,15.32754381,0.0001788,53.2175,269.0509,35.605,282.663,-0.024105,-0.00714039,0.0,0 STARLINK-3546,1 51718U 22016E   22099.91667824 -.00714039  00000-0 -24105-1 0  9997,2 51718  53.2175 269.0509 0001788  35.6050 282.6630 15.32754381  8612,6845.736,93.949,468.825,466.377,0.0
51718.0,STARLINK-3546,PAYLOAD,2022-04-10 14:00:01,15.31737771,0.0001795,53.2177,265.9419,33.4114,4.2894,-0.025119,-0.00720095,0.0,0 STARLINK-3546,1 51718U 22016E   22100.58334491 -.00720095  00000-0 -25119-1 0  9999,2 51718  53.2177 265.9419 0001795  33.4114   4.2894 15.31737771  3678,6848.764,94.011,471.859,469.4,0.0
51718.0,STARLINK-3546,PAYLOAD,2022-04-10 20:00:01,15.31354218,0.0001486999999999,53.2176,264.7789,49.3374,287.5184,-0.025349,-0.00718104,0.0,0 STARLINK-3546,1 51718U 22016E   22100.83334491 -.00718104  00000-0 -25349-1 0  9990,2 51718  53.2176 264.7789 0001487  49.3374 287.5184 15.31354218  8759,6849.908,94.034,472.792,470.754,0.0
51718.0,STARLINK-3546,PAYLOAD,2022-04-10 22:00:00,15.31223658,0.000156,53.2174,264.391,43.0523,33.4466,-0.025254,-0.00712923,0.0,0 STARLINK-3546,1 51718U 22016E   22100.91667824 -.00712923  00000-0 -25254-1 0  9996,2 51718  53.2174 264.3910 0001560  43.0523  33.4466 15.31223658  3689,6850.297,94.042,473.231,471.094,0.0
51718.0,STARLINK-3546,PAYLOAD,2022-04-11 14:00:01,15.30205987,0.0002027,53.2176,261.2892,33.8578,118.3974,-0.026227,-0.00716958,0.0,0 STARLINK-3546,1 51718U 22016E   22101.58334491 -.00716958  00000-0 -26227-1 0  9994,2 51718  53.2176 261.2892 0002027  33.8578 118.3974 15.30205987  3672,6853.334,94.105,476.588,473.81,0.0
51718.0,STARLINK-3546,PAYLOAD,2022-04-11 20:00:01,15.29823139,0.0001589,53.2176,260.1289,45.4341,44.5972,-0.026529,-0.00716593,0.0,0 STARLINK-3546,1 51718U 22016E   22101.83334491 -.00716593  00000-0 -26529-1 0  9992,2 51718  53.2176 260.1289 0001589  45.4341  44.5972 15.29823139  8912,6854.478,94.129,477.432,475.253,0.0
51718.0,STARLINK-3546,PAYLOAD,2022-04-11 22:00:00,15.29692834,0.0001655,53.2173,259.7417,48.7813,140.4332,-0.026414,-0.00711065,0.0,0 STARLINK-3546,1 51718U 22016E   22101.91667824 -.00711065  00000-0 -26414-1 0  9992,2 51718  53.2173 259.7417 0001655  48.7813 140.4332 15.29692834  3670,6854.8669999999975,94.137,477.866,475.597,0.0
51718.0,STARLINK-3546,PAYLOAD,2022-04-12 14:00:01,15.28675416,0.0001835,53.2176,256.6474,40.5332,220.7605,-0.027435,-0.00723601,0.0,0 STARLINK-3546,1 51718U 22016E   22102.58334491 -.00723601  00000-0 -27435-1 0  9990,2 51718  53.2176 256.6474 0001835  40.5332 220.7605 15.28675416  3679,6857.908,94.199,481.031,478.515,0.0
51718.0,STARLINK-3546,PAYLOAD,2022-04-12 20:00:01,15.28290825,0.0001684,53.2175,255.4896,50.1303,147.5616,-0.027622,-0.00711977,0.0,0 STARLINK-3546,1 51718U 22016E   22102.83334491 -.00711977  00000-0 -27622-1 0  9999,2 51718  53.2175 255.4896 0001684  50.1303 147.5616 15.28290825  9064,6859.058000000001,94.223,482.079,479.768,0.0
51718.0,STARLINK-3546,PAYLOAD,2022-04-12 22:00:00,15.28165278,0.0001506999999999,53.2172,255.1033,50.6141,245.7996,-0.027829,-0.00722587,0.0,0 STARLINK-3546,1 51718U 22016E   22102.91667824 -.00722587  00000-0 -27829-1 0  9995,2 51718  53.2172 255.1033 0001507  50.6141 245.7996 15.28165278  3654,6859.434,94.231,482.333,480.265,0.0
51718.0,STARLINK-3546,PAYLOAD,2022-04-13 14:00:03,15.27146732,0.0001794,53.2176,252.0163,34.3371,330.6069,-0.028843,-0.00725724,0.0,0 STARLINK-3546,1 51718U 22016E   22103.58336806 -.00725724  00000-0 -28843-1 0  9995,2 51718  53.2176 252.0163 0001794  34.3371 330.6069 15.27146732  3669,6862.484,94.293,485.58,483.11800000000005,0.0
51718.0,STARLINK-3546,PAYLOAD,2022-04-13 22:00:00,15.266357,0.0001496,53.2172,250.4758,44.5726,353.5261,-0.029181,-0.00723029,0.0,0 STARLINK-3546,1 51718U 22016E   22103.91667824 -.00723029  00000-0 -29181-1 0  9991,2 51718  53.2172 250.4758 0001496  44.5726 353.5261 15.26635700  9226,6864.015,94.325,486.907,484.853,0.0
51718.0,STARLINK-3546,PAYLOAD,2022-04-14 14:00:01,15.2561603,0.0001907,53.2174,247.3963,34.9369,67.8885,-0.030173,-0.00724756,0.0,0 STARLINK-3546,1 51718U 22016E   22104.58334491 -.00724756  00000-0 -30173-1 0  9997,2 51718  53.2174 247.3963 0001907  34.9369  67.8885 15.25616030  3667,6867.073,94.388,490.24800000000016,487.629,0.0
51718.0,STARLINK-3546,PAYLOAD,2022-04-14 22:00:00,15.25105381,0.0001604,53.2171,245.859,47.9615,86.3075,-0.030547,-0.0072262,0.0,0 STARLINK-3546,1 51718U 22016E   22104.91667824 -.00722620  00000-0 -30547-1 0  9996,2 51718  53.2171 245.8590 0001604  47.9615  86.3075 15.25105381  9389,6868.606,94.42,491.573,489.369,0.0
51718.0,STARLINK-3546,PAYLOAD,2022-04-15 14:00:01,15.24084271,0.0001944,53.2174,242.7867,39.3556,155.9638,-0.0314459999999999,-0.00721512,0.0,0 STARLINK-3546,1 51718U 22016E   22105.58334491 -.00721512  00000-0 -31446-1 0  9999,2 51718  53.2174 242.7867 0001944  39.3556 155.9638 15.24084271  3667,6871.674,94.483,494.874,492.203,0.0
51718.0,STARLINK-3546,PAYLOAD,2022-04-15 22:00:00,15.23576953,0.0001634,53.217,241.2529,50.8445,174.0791,-0.032123,-0.00725604,0.0,0 STARLINK-3546,1 51718U 22016E   22105.91667824 -.00725604  00000-0 -32123-1 0  9994,2 51718  53.2170 241.2529 0001634  50.8445 174.0791 15.23576953  9539,6873.199000000001,94.514,496.187,493.941,0.0
51718.0,STARLINK-3546,PAYLOAD,2022-04-16 14:00:01,15.22554682,0.0001896,53.2174,238.188,37.6567,244.6404,-0.032921,-0.00721631,0.0,0 STARLINK-3546,1 51718U 22016E   22106.58334491 -.00721631  00000-0 -32921-1 0  9991,2 51718  53.2174 238.1880 0001896  37.6567 244.6404 15.22554682  3652,6876.275,94.578,499.444,496.836,0.0
51718.0,STARLINK-3546,PAYLOAD,2022-04-16 22:00:01,15.22048078,0.0001539,53.2171,236.6575,48.3817,261.7448,-0.033705,-0.0072733999999999,0.0,0 STARLINK-3546,1 51718U 22016E   22106.91668981 -.00727340  00000-0 -33705-1 0  9996,2 51718  53.2171 236.6575 0001539  48.3817 261.7448 15.22048078  9688,6877.801,94.609,500.724,498.607,0.0
51718.0,STARLINK-3546,PAYLOAD,2022-04-17 14:00:01,15.21026193,0.0001713,53.2175,233.6,39.0593,324.7005,-0.03456,-0.00723884,0.0,0 STARLINK-3546,1 51718U 22016E   22107.58334491 -.00723884  00000-0 -34560-1 0  9995,2 51718  53.2175 233.6000 0001713  39.0593 324.7005 15.21026193  3657,6880.880999999999,94.673,503.925,501.567,0.0
51718.0,STARLINK-3546,PAYLOAD,2022-04-17 22:00:00,15.20516998,0.0001413,53.2172,232.073,50.9011,338.7871,-0.035146,-0.00725095,0.0,0 STARLINK-3546,1 51718U 22016E   22107.91667824 -.00725095  00000-0 -35146-1 0  9998,2 51718  53.2172 232.0730 0001413  50.9011 338.7871 15.20516998  3642,6882.417,94.705,505.255,503.31,0.0
51718.0,STARLINK-3546,PAYLOAD,2022-04-18 08:00:01,15.19878758,0.0001715,53.2176,230.1646,46.9778,104.2606,-0.03571,-0.00723246,0.0,0 STARLINK-3546,1 51718U 22016E   22108.33334491 -.00723246  00000-0 -35710-1 0  9999,2 51718  53.2176 230.1646 0001715  46.9778 104.2606 15.19878758  9901,6884.344,94.744,507.389,505.028,0.0
51718.0,STARLINK-3546,PAYLOAD,2022-04-18 14:00:01,15.19496669,0.000194,53.2175,229.0229,34.3294,45.3781,-0.036193,-0.00724805,0.0,0 STARLINK-3546,1 51718U 22016E   22108.58334491 -.00724805  00000-0 -36193-1 0  9994,2 51718  53.2175 229.0229 0001940  34.3294  45.3781 15.19496669  3650,6885.498000000001,94.768,508.699,506.027,0.0
51718.0,STARLINK-3546,PAYLOAD,2022-04-18 22:00:00,15.18985679,0.0001567,53.2172,227.4992,48.1344,55.664,-0.036617,-0.0072257,0.0,0 STARLINK-3546,1 51718U 22016E   22108.91667824 -.00722570  00000-0 -36617-1 0  9998,2 51718  53.2172 227.4992 0001567  48.1344  55.6640 15.18985679  3651,6887.042,94.8,509.986,507.828,0.0
51718.0,STARLINK-3546,PAYLOAD,2022-04-19 14:00:01,15.17965666,0.0002043,53.2174,224.4564,36.3103,113.8306,-0.037745,-0.00723122,0.0,0 STARLINK-3546,1 51718U 22016E   22109.58334491 -.00723122  00000-0 -37745-1 0  9990,2 51718  53.2174 224.4564 0002043  36.3103 113.8306 15.17965666 10092,6890.127,94.864,513.399,510.584,0.0
51718.0,STARLINK-3546,PAYLOAD,2022-04-20 14:00:01,15.16434848,0.0001884,53.2174,219.9005,43.6502,171.4086,-0.039355,-0.00721529,0.0,0 STARLINK-3546,1 51718U 22016E   22110.58334491 -.00721529  00000-0 -39355-1 0  9990,2 51718  53.2174 219.9005 0001884  43.6502 171.4086 15.16434848  3647,6894.763000000001,94.96,517.927,515.3290000000002,0.0
51718.0,STARLINK-3546,PAYLOAD,2022-04-20 22:00:00,15.15926501,0.0001609,53.2173,218.3837,54.7003,180.772,-0.040081,-0.00724003,0.0,0 STARLINK-3546,1 51718U 22016E   22110.91667824 -.00724003  00000-0 -40081-1 0  9994,2 51718  53.2173 218.3837 0001609  54.7003 180.7720 15.15926501 10294,6896.304,94.991,519.279,517.06,0.0
51718.0,STARLINK-3546,PAYLOAD,2022-04-21 14:00:01,15.14905188,0.0001766,53.2174,215.3554,45.573,228.8883,-0.041126,-0.00721731,0.0,0 STARLINK-3546,1 51718U 22016E   22111.58334491 -.00721731  00000-0 -41126-1 0  9995,2 51718  53.2174 215.3554 0001766  45.5730 228.8883 15.14905188  3650,6899.403,95.055,522.487,520.05,0.0
51718.0,STARLINK-3546,PAYLOAD,2022-04-21 22:00:00,15.14397208,0.0001492,53.2173,213.842,56.3587,236.6778,-0.041948,-0.00725317,0.0,0 STARLINK-3546,1 51718U 22016E   22111.91667824 -.00725317  00000-0 -41948-1 0  9997,2 51718  53.2173 213.8420 0001492  56.3587 236.6778 15.14397208  3636,6900.946,95.087,523.841,521.7819999999998,0.0
51718.0,STARLINK-3546,PAYLOAD,2022-04-22 06:00:00,15.13884552,0.0001453,53.2175,212.3293,59.9436,251.0568,-0.042232,-0.00720075,0.0,0 STARLINK-3546,1 51718U 22016E   22112.25001157 -.00720075  00000-0 -42232-1 0  9999,2 51718  53.2175 212.3293 0001453  59.9436 251.0568 15.13884552 10491,6902.504,95.12,525.372,523.366,0.0
